SILU-1 (SILKROAD 1)     
1 42903U 17021F   18248.20485133  .00024340  00000-0  15783-3 0  9998
2 42903  42.7765 202.2325 0012638 151.6961 338.2922 15.75395180 62535
MIRATA                  
1 43015U 17073C   18248.23532240  .00001676  00000-0  13674-3 0  9999
2 43015  97.7045 175.8978 0258226  11.2302 349.4522 14.78306633 42967
MAKERSAT 0              
1 43016U 17073D   18248.01754760  .00001005  00000-0  83852-4 0  9991
2 43016  97.7073 175.8340 0259623  12.0158 348.7089 14.78264177 42924
ASTERIA                 
1 43020U 98067NH  18247.63839764  .00012503  00000-0  15196-3 0  9993
2 43020  51.6424 334.7508 0002640  98.1040 262.0253 15.60979855 44897
DELLINGR (RBLE)         
1 43021U 98067NJ  18248.11504376  .00005083  00000-0  71714-4 0  9990
2 43021  51.6410 334.8938 0002653  94.3408 265.7888 15.58511551 44932
OSIRIS-3U               
1 43027U 98067NL  18248.21442971  .00039066  00000-0  33624-3 0  9994
2 43027  51.6374 324.2593 0003063  55.2971 304.8314 15.68901593 44966
AEROCUBE 7B             
1 43042U 17071F   18247.20679536  .00002138  00000-0  64050-4 0  9992
2 43042  51.6400  16.4303 0004959 186.7214 173.3705 15.39303829 41772
AEROCUBE 7C             
1 43043U 17071G   18247.72617934  .00002304  00000-0  68211-4 0  9992
2 43043  51.6403  13.9047 0005027 190.3316 169.7566 15.39309123 41827
CHEFSAT                 
1 43044U 17071H   18248.20084444  .00005677  00000-0  14740-3 0  9994
2 43044  51.6408  10.3596 0004969 191.7726 168.3144 15.40507542 41911
ASGARDIA 1              
1 43049U 17071N   18246.79153786  .00002361  00000-0  69377-4 0  9991
2 43049  51.6405  18.1727 0002406 200.2833 159.8056 15.39422471 41679
ISARA                   
1 43050U 17071P   18247.49840830  .00004859  00000-0  12853-3 0  9994
2 43050  51.6400  13.9092 0002315 200.2766 159.8127 15.40278185 41793
FAUNA                   
1 43052U 17071R   18247.42175702  .00002794  00000-0  79841-4 0  9995
2 43052  51.6405  14.8919 0002304 198.3831 161.7070 15.39585126 41777
CORVUS BC3              
1 43118U 18004H   18247.21710434  .00000559  00000-0  27303-4 0  9992
2 43118  97.5262 309.9378 0010848 170.0835 190.0617 15.22368925 35739
MICROMAS-2A             
1 43131U 18004W   18247.73633252  .00001357  00000-0  60621-4 0  9993
2 43131  97.5273 310.6484 0010014 170.3357 189.8074 15.23059446 35829
GOMX4-B                 
1 43196U 18015E   18248.26453746  .00000237  00000-0  12767-4 0  9997
2 43196  97.3563  15.5990 0017480 233.9601 126.0015 15.23729933 32724
GOMX4-A                 
1 43197U 18015F   18248.15216728  .00000441  00000-0  21234-4 0  9999
2 43197  97.3570  15.4930 0017895 234.2976 250.4161 15.23736088 32717
1KUNS-PF                
1 43466U 98067NP  18247.72724128  .00010655  00000-0  15006-3 0  9990
2 43466  51.6402 340.5445 0000897  38.5947 321.5109 15.57225527 18087
UBAKUSAT                
1 43467U 98067NQ  18248.12583902  .00006762  00000-0  99448-4 0  9996
2 43467  51.6408 338.7099 0003004  65.2238 294.9066 15.56749966 18151
BATSU-CS1 (IRAZU)       
1 43468U 98067NR  18247.51871949  .00010747  00000-0  14903-3 0  9990
2 43468  51.6405 341.4018 0000856  24.0641 336.0391 15.57635028118046
CUBERRT                 
1 43546U 98067NU  18247.45869033  .00004016  00000-0  65056-4 0  9999
2 43546  51.6406 343.2442 0006060 128.2985 231.8552 15.55334330  8168
TEMPEST-D               
1 43547U 98067NV  18247.84864882  .00002202  00000-0  39260-4 0  9993
2 43547  51.6410 341.3487 0006347 130.9356 229.2185 15.55048321  7908
HALOSAT                 
1 43549U 98067NX  18248.23462986  .00005863  00000-0  92106-4 0  9992
2 43549  51.6408 339.4266 0006042 140.4172 219.7261 15.55210718  7971
ENDUROSAT ONE           
1 43551U 98067NZ  18247.51810148  .00007848  00000-0  11918-3 0  9998
2 43551  51.6403 342.8915 0006320 146.7216 213.4174 15.55594304  8279
EQUISAT                 
1 43552U 98067PA  18247.51909124  .00006859  00000-0  10542-3 0  9995
2 43552  51.6405 342.8986 0006632 147.3029 212.8374 15.55500753  8231
AEROCUBE 12A            
1 43556U 18046C   18247.77613156  .00001557  00000-0  69430-4 0  9994
2 43556  51.6436 351.9652 0009149 124.3905 235.7941 15.27762967  7682
AEROCUBE 12B            
1 43557U 18046D   18248.23405787  .00001477  00000-0  66560-4 0  9998
2 43557  51.6434 349.7720 0009120 126.0887 234.0938 15.27752668  7707
UITMSAT-1               
1 43589U 98067PD  18247.86571137  .00007892  00000-0  12231-3 0  9997
2 43589  51.6404 341.4612 0005886 157.5005 202.6245 15.55024559  4020
MAYA-1                  
1 43590U 98067PE  18247.47966928  .00007988  00000-0  12360-3 0  9991
2 43590  51.6406 343.3829 0006025 157.1756 202.9504 15.55047039  3893
BHUTAN-1                
1 43591U 98067PF  18247.54333891  .00009000  00000-0  13814-3 0  9999
2 43591  51.6405 343.0582 0006113 158.7032 201.4214 15.55086941  3907
SIRIUSSAT 1             
1 43595U 98067PG  18247.87256301  .00007324  00000-0  11548-3 0  9998
2 43595  51.6405 341.5029 0003895 106.7717 253.3701 15.54677349  3136
SIRIUSSAT 2             
1 43596U 98067PH  18248.19572500  .00009446  00000-0  14748-3 0  9999
2 43596  51.6414 339.9137 0004531 112.2858 247.8614 15.54551815  3189
